STARLINK-2418_new
1 18097C 21027F   21326.17379166  .00000482  00000-0  32252-4 0  3260
2 18097  53.0557 352.9581 0001997  51.3569  51.4243 15.06407998    12
STARLINK-2418_old
1 28097C 21027F   21325.14478928  .00001185  00000-0  79408-4 0  3256
2 28097  53.0552 357.5777 0001914  51.4945 227.8890 15.06395026    18
